{"type": "FeatureCollection", "features": [ {"type": "Feature", "properties": {"norad_id": 37094, "name": "COSMOS 2251 DEB", "group": "cosmos-2251-debris", "lat": -69.67445166370138, "lon": -33.91349945603618, "alt_km": 828.8570864630992, "timestamp": "2025-12-26T13:39:19.377578+00:00", "meta": {"OBJECT_NAME": "COSMOS 2251 DEB", "OBJECT_ID": "1993-036BFQ", "EPOCH": "2025-12-10T15:45:11.030688", "MEAN_MOTION": 14.37808892, "ECCENTRICITY": 0.0084108, "INCLINATION": 74.1091, "RA_OF_ASC_NODE": 124.9809, "ARG_OF_PERICENTER": 91.4784, "MEAN_ANOMALY": 269.6007, "EPHEMERIS_TYPE": 0, "CLASSIFICATION_TYPE": "U", "NORAD_CAT_ID": 37094, "ELEMENT_SET_NO": 999, "REV_AT_EPOCH": 84476, "BSTAR": 0.0015212, "MEAN_MOTION_DOT": 4.753e-05, "MEAN_MOTION_DDOT": 0}, "tle": {"line1": "1 37094U 93036BFQ 25344.65637767  .00004753  00000+0  15212-2 0  9990", "line2": "2 37094  74.1091 124.9809 0084108  91.4784 269.6007 14.37808892844763"}}, "geometry": {"type": "Point", "coordinates": [-33.91349945603618, -69.67445166370138]}}, {"type": "Feature", "properties": {"norad_id": 37095, "name": "COSMOS 2251 DEB", "group": "cosmos-2251-debris", "lat": -73.40630786549353, "lon": 88.96669935696754, "alt_km": 802.4092642447886, "timestamp": "2025-12-26T13:39:19.377589+00:00", "meta": {"OBJECT_NAME": "COSMOS 2251 DEB", "OBJECT_ID": "1993-036BFR", "EPOCH": "2025-12-20T05:48:30.438144", "MEAN_MOTION": 14.03423265, "ECCENTRICITY": 0.01937256, "INCLINATION": 73.8447, "RA_OF_ASC_NODE": 176.6944, "ARG_OF_PERICENTER": 233.1449, "MEAN_ANOMALY": 125.1788, "EPHEMERIS_TYPE": 0, "CLASSIFICATION_TYPE": "U", "NORAD_CAT_ID": 37095, "ELEMENT_SET_NO": 999, "REV_AT_EPOCH": 62741, "BSTAR": 0.00075143733, "MEAN_MOTION_DOT": 1.362e-05, "MEAN_MOTION_DDOT": 0}, "tle": {"line1": "1 37095U 93036BFR 25354.24201896  .00001362  00000+0  75144-3 0  9991", "line2": "2 37095  73.8447 176.6944 0193725 233.1449 125.1788 14.03423265627411"}}, "geometry": {"type": "Point", "coordinates": [88.96669935696754, -73.40630786549353]}}, {"type": "Feature", "properties": {"norad_id": 37108, "name": "COSMOS 2251 DEB", "group": "cosmos-2251-debris", "lat": 38.23039016535917, "lon": 67.98748206332917, "alt_km": 747.8399016913027, "timestamp": "2025-12-26T13:39:19.377599+00:00", "meta": {"OBJECT_NAME": "COSMOS 2251 DEB", "OBJECT_ID": "1993-036BGE", "EPOCH": "2025-12-26T03:28:29.163936", "MEAN_MOTION": 14.4139621, "ECCENTRICITY": 0.0090037, "INCLINATION": 74.0439, "RA_OF_ASC_NODE": 55.7469, "ARG_OF_PERICENTER": 129.01, "MEAN_ANOMALY": 231.9118, "EPHEMERIS_TYPE": 0, "CLASSIFICATION_TYPE": "U", "NORAD_CAT_ID": 37108, "ELEMENT_SET_NO": 999, "REV_AT_EPOCH": 85700, "BSTAR": 0.00092454292, "MEAN_MOTION_DOT": 3.119e-05, "MEAN_MOTION_DDOT": 0}, "tle": {"line1": "1 37108U 93036BGE 25360.14478199  .00003119  00000+0  92454-3 0  9999", "line2": "2 37108  74.0439  55.7469 0090037 129.0100 231.9118 14.41396210857002"}}, "geometry": {"type": "Point", "coordinates": [67.98748206332917, 38.23039016535917]}}, {"type": "Feature", "properties": {"norad_id": 37126, "name": "COSMOS 2251 DEB", "group": "cosmos-2251-debris", "lat": 69.8762507356501, "lon": 19.218993312925896, "alt_km": 692.4946045045544, "timestamp": "2025-12-26T13:39:19.377609+00:00", "meta": {"OBJECT_NAME": "COSMOS 2251 DEB", "OBJECT_ID": "1993-036BGY", "EPOCH": "2025-12-25T14:28:40.048320", "MEAN_MOTION": 14.73111648, "ECCENTRICITY": 0.0122556, "INCLINATION": 73.9501, "RA_OF_ASC_NODE": 329.3283, "ARG_OF_PERICENTER": 204.6714, "MEAN_ANOMALY": 154.8568, "EPHEMERIS_TYPE": 0, "CLASSIFICATION_TYPE": "U", "NORAD_CAT_ID": 37126, "ELEMENT_SET_NO": 999, "REV_AT_EPOCH": 8288, "BSTAR": 0.00020497, "MEAN_MOTION_DOT": 1.448e-05, "MEAN_MOTION_DDOT": 0}, "tle": {"line1": "1 37126U 93036BGY 25359.60324130  .00001448  00000+0  20497-3 0  9994", "line2": "2 37126  73.9501 329.3283 0122556 204.6714 154.8568 14.73111648 82880"}}, "geometry": {"type": "Point", "coordinates": [19.218993312925896, 69.8762507356501]}}, {"type": "Feature", "properties": {"norad_id": 37132, "name": "COSMOS 2251 DEB", "group": "cosmos-2251-debris", "lat": 11.660378656705646, "lon": -149.76963995824534, "alt_km": 608.8887411742362, "timestamp": "2025-12-26T13:39:19.377620+00:00", "meta": {"OBJECT_NAME": "COSMOS 2251 DEB", "OBJECT_ID": "1993-036BHE", "EPOCH": "2025-12-26T07:06:11.288736", "MEAN_MOTION": 14.78001376, "ECCENTRICITY": 0.0040558, "INCLINATION": 74.0015, "RA_OF_ASC_NODE": 207.3729, "ARG_OF_PERICENTER": 0.16, "MEAN_ANOMALY": 359.958, "EPHEMERIS_TYPE": 0, "CLASSIFICATION_TYPE": "U", "NORAD_CAT_ID": 37132, "ELEMENT_SET_NO": 999, "REV_AT_EPOCH": 62616, "BSTAR": 0.00084407971, "MEAN_MOTION_DOT": 6.146e-05, "MEAN_MOTION_DDOT": 0}, "tle": {"line1": "1 37132U 93036BHE 25360.29596399  .00006146  00000+0  84408-3 0  9998", "line2": "2 37132  74.0015 207.3729 0040558   0.1600 359.9580 14.78001376626161"}}, "geometry": {"type": "Point", "coordinates": [-149.76963995824534, 11.660378656705646]}}, {"type": "Feature", "properties": {"norad_id": 37270, "name": "COSMOS 2251 DEB", "group": "cosmos-2251-debris", "lat": 59.05829757018701, "lon": -17.946826146699987, "alt_km": 1072.6897984784064, "timestamp": "2025-12-26T13:39:19.377630+00:00", "meta": {"OBJECT_NAME": "COSMOS 2251 DEB", "OBJECT_ID": "1993-036BHJ", "EPOCH": "2025-12-12T22:45:06.098400", "MEAN_MOTION": 13.59808663, "ECCENTRICITY": 0.03985351, "INCLINATION": 73.9378, "RA_OF_ASC_NODE": 335.5481, "ARG_OF_PERICENTER": 347.3958, "MEAN_ANOMALY": 11.7404, "EPHEMERIS_TYPE": 0, "CLASSIFICATION_TYPE": "U", "NORAD_CAT_ID": 37270, "ELEMENT_SET_NO": 999, "REV_AT_EPOCH": 77072, "BSTAR": 0.0064936549, "MEAN_MOTION_DOT": 8.148e-05, "MEAN_MOTION_DDOT": 0}, "tle": {"line1": "1 37270U 93036BHJ 25346.94798725  .00008148  00000+0  64937-2 0  9992", "line2": "2 37270  73.9378 335.5481 0398535 347.3958  11.7404 13.59808663770728"}}, "geometry": {"type": "Point", "coordinates": [-17.946826146699987, 59.05829757018701]}}, {"type": "Feature", "properties": {"norad_id": 37278, "name": "COSMOS 2251 DEB", "group": "cosmos-2251-debris", "lat": -47.27415282251639, "lon": -54.0194628606221, "alt_km": 1056.9834156516781, "timestamp": "2025-12-26T13:39:19.377641+00:00", "meta": {"OBJECT_NAME": "COSMOS 2251 DEB", "OBJECT_ID": "1993-036BHS", "EPOCH": "2025-12-22T06:43:10.079328", "MEAN_MOTION": 14.15136552, "ECCENTRICITY": 0.02988964, "INCLINATION": 73.7862, "RA_OF_ASC_NODE": 332.08, "ARG_OF_PERICENTER": 152.8639, "MEAN_ANOMALY": 274.4968, "EPHEMERIS_TYPE": 0, "CLASSIFICATION_TYPE": "U", "NORAD_CAT_ID": 37278, "ELEMENT_SET_NO": 999, "REV_AT_EPOCH": 63964, "BSTAR": 0.0007998951, "MEAN_MOTION_DOT": 2.366e-05, "MEAN_MOTION_DDOT": 0}, "tle": {"line1": "1 37278U 93036BHS 25356.27997777  .00002366  00000+0  79990-3 0  9997", "line2": "2 37278  73.7862 332.0800 0298896 152.8639 274.4968 14.15136552639645"}}, "geometry": {"type": "Point", "coordinates": [-54.0194628606221, -47.27415282251639]}}, {"type": "Feature", "properties": {"norad_id": 37280, "name": "COSMOS 2251 DEB", "group": "cosmos-2251-debris", "lat": 67.32985568595957, "lon": 169.06851707171867, "alt_km": 761.8097961202802, "timestamp": "2025-12-26T13:39:19.377651+00:00", "meta": {"OBJECT_NAME": "COSMOS 2251 DEB", "OBJECT_ID": "1993-036BHU", "EPOCH": "2025-12-24T08:42:55.097280", "MEAN_MOTION": 14.19374869, "ECCENTRICITY": 0.01298569, "INCLINATION": 74.0307, "RA_OF_ASC_NODE": 36.2886, "ARG_OF_PERICENTER": 162.4519, "MEAN_ANOMALY": 198.1176, "EPHEMERIS_TYPE": 0, "CLASSIFICATION_TYPE": "U", "NORAD_CAT_ID": 37280, "ELEMENT_SET_NO": 999, "REV_AT_EPOCH": 57488, "BSTAR": 0.0012209104, "MEAN_MOTION_DOT": 2.768e-05, "MEAN_MOTION_DDOT": 0}, "tle": {"line1": "1 37280U 93036BHU 25358.36313770  .00002768  00000+0  12209-2 0  9992", "line2": "2 37280  74.0307  36.2886 0129856 162.4519 198.1176 14.19374869574882"}}, "geometry": {"type": "Point", "coordinates": [169.06851707171867, 67.32985568595957]}}, {"type": "Feature", "properties": {"norad_id": 37284, "name": "COSMOS 2251 DEB", "group": "cosmos-2251-debris", "lat": 40.48714658223939, "lon": -61.91789429287779, "alt_km": 938.7455134317934, "timestamp": "2025-12-26T13:39:19.377661+00:00", "meta": {"OBJECT_NAME": "COSMOS 2251 DEB", "OBJECT_ID": "1993-036BHY", "EPOCH": "2025-12-10T18:04:20.469216", "MEAN_MOTION": 14.12686618, "ECCENTRICITY": 0.01605026, "INCLINATION": 74.0123, "RA_OF_ASC_NODE": 160.2425, "ARG_OF_PERICENTER": 312.4867, "MEAN_ANOMALY": 59.8736, "EPHEMERIS_TYPE": 0, "CLASSIFICATION_TYPE": "U", "NORAD_CAT_ID": 37284, "ELEMENT_SET_NO": 999, "REV_AT_EPOCH": 59147, "BSTAR": 0.001592138, "MEAN_MOTION_DOT": 3.31e-05, "MEAN_MOTION_DDOT": 0}, "tle": {"line1": "1 37284U 93036BHY 25344.75301469  .00003310  00000+0  15921-2 0  9994", "line2": "2 37284  74.0123 160.2425 0160502 312.4867  59.8736 14.12686618591475"}}, "geometry": {"type": "Point", "coordinates": [-61.91789429287779, 40.48714658223939]}}, {"type": "Feature", "properties": {"norad_id": 37292, "name": "COSMOS 2251 DEB", "group": "cosmos-2251-debris", "lat": 23.030479756667138, "lon": -161.11015633392057, "alt_km": 977.9767659895288, "timestamp": "2025-12-26T13:39:19.377671+00:00", "meta": {"OBJECT_NAME": "COSMOS 2251 DEB", "OBJECT_ID": "1993-036BJG", "EPOCH": "2025-12-02T14:04:30.366912", "MEAN_MOTION": 14.03226454, "ECCENTRICITY": 0.02102512, "INCLINATION": 74.129, "RA_OF_ASC_NODE": 67.3453, "ARG_OF_PERICENTER": 73.1105, "MEAN_ANOMALY": 289.2966, "EPHEMERIS_TYPE": 0, "CLASSIFICATION_TYPE": "U", "NORAD_CAT_ID": 37292, "ELEMENT_SET_NO": 999, "REV_AT_EPOCH": 59706, "BSTAR": 0.0022453288, "MEAN_MOTION_DOT": 4.236e-05, "MEAN_MOTION_DDOT": 0}, "tle": {"line1": "1 37292U 93036BJG 25336.58646258  .00004236  00000+0  22453-2 0  9999", "line2": "2 37292  74.1290  67.3453 0210251  73.1105 289.2966 14.03226454597064"}}, "geometry": {"type": "Point", "coordinates": [-161.11015633392057, 23.030479756667138]}}]}